ONEWEB-0319             
1 49105U 21075AG  25024.78074688 -.00000054  00000+0 -17133-3 0  9993
2 49105  87.9088 107.1789 0001741  87.5640 272.5691 13.17648172167643
ONEWEB-0323             
1 49106U 21075AH  25024.69127514  .00000126  00000+0  31611-3 0  9996
2 49106  87.8849  91.8987 0001798  77.6474 282.4856 13.12442783168856
ONEWEB-0329             
1 49107U 21075AJ  25024.71324985 -.00000045  00000+0 -14966-3 0  9997
2 49107  87.9087 107.1970 0001882  96.9659 263.1687 13.17647834167618
ONEWEB-0330             
1 49108U 21075AK  25024.71494842  .00000011  00000+0 -56600-5 0  9993
2 49108  87.9089 107.1985 0002082 100.5690 259.5676 13.17650834167652
ONEWEB-0292             
1 49186U 21083A   25024.60267340 -.00000025  00000+0 -10371-3 0  9996
2 49186  87.8888  61.3900 0001725  91.5293 268.6033 13.13470053165456
ONEWEB-0303             
1 49187U 21083B   25024.70476131  .00000067  00000+0  13743-3 0  9998
2 49187  87.9070  76.6067 0001741  92.0367 268.0965 13.18684788164241
ONEWEB-0306             
1 49188U 21083C   25024.54353180  .00000031  00000+0  45088-4 0  9998
2 49188  87.9074  76.6242 0002008 102.0259 258.1098 13.18686140162980
ONEWEB-0307             
1 49189U 21083D   25024.59711212 -.00000114  00000+0 -34746-3 0  9990
2 49189  87.8890  61.3936 0002145 101.4511 258.6859 13.13470973164165
